EUTELSAT 7A             
1 28187U 04008A   25222.48933785  .00000104  00000+0  00000+0 0  9991
2 28187   5.0350  75.7338 0001093  93.9237 186.5080  1.00270897 78232
EUTELSAT 174A           
1 28924U 05052A   25222.50419240  .00000009  00000+0  00000+0 0  9992
2 28924   3.4258  80.4193 0006198  59.2705 175.0067  1.00270960 49213
EUTELSAT HOTBIRD 13B    
1 29270U 06032A   25222.54769926  .00000156  00000+0  00000+0 0  9992
2 29270   0.8533  85.7758 0004073  50.7522  52.9847  1.00270699 44193
EUTELSAT HOTBIRD 13C    
1 33459U 08065A   25222.39587054 -.00000100  00000+0  00000+0 0  9997
2 33459   2.1454  82.9356 0003618  70.7914 295.3981  1.00271434 44233
EUTELSAT 36B            
1 36101U 09065A   25222.55116752  .00000113  00000+0  00000+0 0  9999
2 36101   0.0517   4.9218 0005801 136.1966  67.0536  1.00272919 57590
EUTELSAT KA-SAT 9A      
1 37258U 10069A   25222.32857509  .00000063  00000+0  00000+0 0  9990
2 37258   0.0579 304.6196 0004431 182.2377 319.4699  1.00271851 40896
EUTELSAT 7 WEST A       
1 37816U 11051A   25222.39691056 -.00000059  00000+0  00000+0 0  9998
2 37816   0.0659 339.3846 0005289 174.1776 301.1408  1.00270885 50777
EUTELSAT 16A            
1 37836U 11057A   25222.33013510  .00000105  00000+0  00000+0 0  9994
2 37836   0.0651 351.4284 0005447 146.0673 316.3871  1.00270294  4216
